{
    "links": {
        "self": "http://www.neowsapp.com/rest/v1/neo/3708361?api_key=iIulBulltgU6a56xZRHN4H3l9WmuAYTsLGpBGhQ2"
    },
    "id": "3708361",
    "neo_reference_id": "3708361",
    "name": "(2015 BM509)",
    "designation": "2015 BM509",
    "nasa_jpl_url": "http://ssd.jpl.nasa.gov/sbdb.cgi?sstr=3708361",
    "absolute_magnitude_h": 23.8,
    "estimated_diameter": {
        "kilometers": {
            "estimated_diameter_min": 0.046190746,
            "estimated_diameter_max": 0.1032856481
        },
        "meters": {
            "estimated_diameter_min": 46.1907460282,
            "estimated_diameter_max": 103.2856480504
        },
        "miles": {
            "estimated_diameter_min": 0.0287015901,
            "estimated_diameter_max": 0.0641787064
        },
        "feet": {
            "estimated_diameter_min": 151.544447199,
            "estimated_diameter_max": 338.8636855496
        }
    },
    "is_potentially_hazardous_asteroid": false,
    "close_approach_data": [
        {
            "close_approach_date": "2015-01-10",
            "close_approach_date_full": "2015-Jan-10 08:55",
            "epoch_date_close_approach": 1420880100000,
            "relative_velocity": {
                "kilometers_per_second": "3.8575032334",
                "kilometers_per_hour": "13887.0116401491",
                "miles_per_hour": "8628.848982736"
            },
            "miss_distance": {
                "astronomical": "0.1961383293",
                "lunar": "76.2978100977",
                "kilometers": "29341876.288638591",
                "miles": "18232196.4875749158"
            },
            "orbiting_body": "Earth"
        }
    ],
    "orbital_data": {
        "orbit_id": "5",
        "orbit_determination_date": "2017-04-06 08:36:06",
        "first_observation_date": "2015-01-18",
        "last_observation_date": "2015-01-24",
        "data_arc_in_days": 6,
        "observations_used": 13,
        "orbit_uncertainty": "8",
        "minimum_orbit_intersection": ".195583",
        "jupiter_tisserand_invariant": "4.440",
        "epoch_osculation": "2457042.5",
        "eccentricity": ".2319898930486893",
        "semi_major_axis": "1.534055929623951",
        "inclination": "7.297573419607525",
        "ascending_node_longitude": "104.1813137133349",
        "orbital_period": "694.0011936385202",
        "perihelion_distance": "1.178170458579783",
        "perihelion_argument": "9.423163549107656",
        "aphelion_distance": "1.889941400668119",
        "perihelion_time": "2457038.228657514848",
        "mean_anomaly": "2.215678169936467",
        "mean_motion": ".5187310962861409",
        "equinox": "J2000",
        "orbit_class": {
            "orbit_class_type": "AMO",
            "orbit_class_description": "Near-Earth asteroid orbits similar to that of 1221 Amor",
            "orbit_class_range": "1.017 AU < q (perihelion) < 1.3 AU"
        }
    },
    "is_sentry_object": false
}